OBJECT_NAME,OBJECT_ID,EPOCH,MEAN_MOTION,ECCENTRICITY,INCLINATION,RA_OF_ASC_NODE,ARG_OF_PERICENTER,MEAN_ANOMALY,EPHEMERIS_TYPE,CLASSIFICATION_TYPE,NORAD_CAT_ID,ELEMENT_SET_NO,REV_AT_EPOCH,BSTAR,MEAN_MOTION_DOT,MEAN_MOTION_DDOT
SCD 1,1993-009B,2026-07-21T14:29:44.971872,14.46130458,.00419828,24.9708,355.0711,142.0402,296.3688,0,U,22490,999,76610,.46461362E-4,.356E-5,0
TECHSAT 1B (GO-32),1998-043D,2026-07-21T09:54:55.389312,14.24434140,.00023162,99.0091,196.0385,105.0328,255.1107,0,U,25397,999,45620,.34134747E-4,.32E-6,0
SCD 2,1998-060A,2026-07-21T11:54:16.074432,14.45536071,.00169502,24.9936,220.5782,125.1206,31.1974,0,U,25504,999,46529,.3222841E-4,.298E-5,0
DLR-TUBSAT,1999-029B,2026-07-21T12:45:48.239712,14.52434128,.00130935,98.6716,199.1693,243.8455,116.1393,0,U,25757,999,43823,.2116303E-4,.38E-6,0
TERRA,1999-068A,2026-07-21T14:52:08.376096,14.61127057,.00036222,97.9436,250.7972,110.2563,49.2698,0,U,25994,999,41463,.58077171E-4,.241E-5,0
MAROC-TUBSAT,2001-056D,2026-07-21T11:01:16.195872,13.70263662,.00205017,99.8104,19.9678,56.6332,331.7893,0,U,27004,999,23088,.22354213E-4,-.27E-6,0
AQUA,2002-022A,2026-07-21T14:39:49.139424,14.62134884,.00013252,98.4301,172.5868,102.0917,312.0397,0,U,27424,999,28830,.11668767E-3,.537E-5,0
SHIYAN-1 (SY-1),2004-012A,2026-07-21T05:31:05.501856,15.34545619,.00043287,97.8671,282.5291,247.0339,113.0446,0,U,28220,999,21631,.30184471E-3,.10019E-3,0
AURA,2004-026A,2026-07-21T13:31:32.360736,14.61374129,.00014089,98.3434,159.3062,93.7322,266.4040,0,U,28376,999,17123,.11967063E-3,.543E-5,0
IRS-P5 (CARTOSAT-1),2005-017A,2026-07-21T12:05:44.293632,14.91128178,.00009899,97.5306,224.0123,56.7886,303.3428,0,U,28649,999,14893,.89848029E-4,.839E-5,0
SINAH 1,2005-043D,2026-07-21T15:12:22.669344,14.64178378,.00148455,98.2902,337.1663,163.6846,196.4837,0,U,28893,999,10556,.51903932E-4,.224E-5,0
RESURS-DK 1,2006-021A,2026-07-21T12:57:17.215776,15.13334713,.00074818,69.9299,250.6183,264.3196,95.7117,0,U,29228,999,10777,.80555332E-4,.133E-4,0
ARIRANG-2 (KOMPSAT-2),2006-031A,2026-07-21T15:47:34.083168,14.64677451,.00136508,97.8324,25.4385,329.6047,103.6555,0,U,29268,999,6652,.18954552E-4,.56E-6,0
LAPAN-TUBSAT,2007-001A,2026-07-21T14:18:45.574848,14.85978437,.00136318,98.1363,202.5992,75.2819,284.9905,0,U,29709,999,5626,-.19573021E-4,-.229E-5,0
HAIYANG-1B,2007-010A,2026-07-21T09:44:04.151904,14.31034419,.00148216,98.3520,182.9278,98.9579,261.3283,0,U,31113,999,553,.4005736E-4,.64E-6,0
COSMO-SKYMED 1,2007-023A,2026-07-21T14:54:30.653568,14.97244419,.00018127,97.8855,34.7692,95.0649,265.0780,0,U,31598,999,3494,.20363772E-3,.2298E-4,0
TERRASAR-X,2007-026A,2026-07-21T10:38:16.050048,15.19148901,.00018087,97.4457,209.6623,80.3305,279.8134,0,U,31698,999,5842,.12713736E-4,.2E-5,0
WORLDVIEW-1 (WV-1),2007-041A,2026-07-21T14:55:03.129600,15.24605800,.00021576,97.3903,321.8851,180.6080,179.5155,0,U,32060,999,4812,.22162876E-3,.5395E-4,0
YAOGAN-3,2007-055A,2026-07-21T15:01:02.988192,14.90894614,.00013964,97.8143,232.1634,85.3061,274.8316,0,U,32289,999,1100,.13829524E-3,.1308E-4,0
COSMO-SKYMED 2,2007-059A,2026-07-21T14:11:39.400800,14.82153951,.00014747,97.8898,25.6922,94.2407,265.8975,0,U,32376,999,710,.39213321E-4,.26E-5,0
RADARSAT-2,2007-061A,2026-07-21T14:28:55.106112,14.29984452,.00013419,98.5791,209.0450,85.6887,274.4449,0,U,32382,999,97087,.55381932E-4,.99E-6,0
CARTOSAT-2A,2008-021A,2026-07-21T14:41:03.064128,14.79280264,.00119231,97.7612,250.1425,7.4059,352.7327,0,U,32783,999,98389,.3893158E-4,.24E-5,0
HUANJING 1A (HJ-1A),2008-041A,2026-07-21T14:54:02.989152,14.84055787,.00199213,97.6709,187.1327,29.8296,330.4050,0,U,33320,999,96351,.18346038E-4,.102E-5,0
HUANJING 1B (HJ-1B),2008-041B,2026-07-21T14:32:19.199328,14.83374607,.00379746,97.6546,190.1851,71.2555,289.2775,0,U,33321,999,96351,.13828988E-3,.1096E-4,0
GEOEYE 1,2008-042A,2026-07-21T13:59:32.712864,14.64652994,.0003508,98.1322,276.1039,323.0140,37.0820,0,U,33331,999,95518,.62600538E-4,.285E-5,0
THEOS,2008-049A,2026-07-21T15:11:36.594816,14.20138731,.00011186,98.5548,258.7953,94.2511,265.8794,0,U,33396,999,92285,.21230543E-3,.41E-5,0
COSMO-SKYMED 3,2008-054A,2026-07-21T14:28:01.995168,15.07143192,.00165921,97.8254,61.7418,144.5833,215.6499,0,U,33412,999,96212,.19446285E-3,.2865E-4,0
YAOGAN-4,2008-061A,2026-07-21T07:15:41.796576,14.83259188,.00133532,97.9302,135.5624,324.9302,35.1031,0,U,33446,999,95072,.89326403E-4,.677E-5,0
GOSAT (IBUKI),2009-002A,2026-07-21T07:08:34.764576,14.67538617,.00010912,98.0915,312.9560,91.5630,268.5700,0,U,33492,999,93646,.82520796E-4,.42E-5,0
DEIMOS-1,2009-041A,2026-07-21T13:46:56.944416,14.75266693,.0002795,97.7447,358.3188,84.3706,275.7822,0,U,35681,999,91195,.1930914E-4,.83E-6,0
