{"epoch":1784710044,"count":18256,"objects":[{"id":"22490","name":"SCD 1","type":"PAYLOAD","l1":"1 22490U 93009B   26202.60399273  .00000356  00000-0  46461-4 0  9998","l2":"2 22490  24.9708 355.0711 0041983 142.0402 296.3688 14.46130458766107"},{"id":"25397","name":"TECHSAT 1B","type":"PAYLOAD","l1":"1 25397U 98043D   26202.41314108  .00000032  00000-0  34135-4 0  9999","l2":"2 25397  99.0091 196.0385 0002316 105.0328 255.1107 14.24434140456204"},{"id":"25504","name":"SCD 2","type":"PAYLOAD","l1":"1 25504U 98060A   26202.49601938  .00000298  00000-0  32228-4 0  9991","l2":"2 25504  24.9936 220.5782 0016950 125.1206  31.1974 14.45536071465292"},{"id":"25757","name":"TUBSAT","type":"PAYLOAD","l1":"1 25757U 99029B   26202.53180833  .00000038  00000-0  21163-4 0  9996","l2":"2 25757  98.6716 199.1693 0013093 243.8455 116.1393 14.52434128438238"},{"id":"25994","name":"TERRA","type":"PAYLOAD","l1":"1 25994U 99068A   26202.61954139  .00000241  00000-0  58077-4 0  9999","l2":"2 25994  97.9436 250.7972 0003622 110.2563  49.2698 14.61127057414632"},{"id":"27004","name":"MAROC TUBSAT","type":"PAYLOAD","l1":"1 27004U 01056D   26202.45921523 -.00000027  00000-0  22354-4 0  9998","l2":"2 27004  99.8104  19.9678 0020502  56.6332 331.7893 13.70263662230881"},{"id":"27424","name":"AQUA","type":"PAYLOAD","l1":"1 27424U 02022A   26202.61098541  .00000537  00000-0  11669-3 0  9992","l2":"2 27424  98.4301 172.5868 0001325 102.0917 312.0397 14.62134884288301"},{"id":"28220","name":"TANSUO 1","type":"PAYLOAD","l1":"1 28220U 04012A   26202.22992479  .00010019  00000-0  30184-3 0  9997","l2":"2 28220  97.8671 282.5291 0004329 247.0339 113.0446 15.34545619216314"},{"id":"28376","name":"AURA","type":"PAYLOAD","l1":"1 28376U 04026A   26202.56356899  .00000543  00000-0  11967-3 0  9990","l2":"2 28376  98.3434 159.3062 0001409  93.7322 266.4040 14.61374129171239"},{"id":"28649","name":"CARTOSAT-1","type":"PAYLOAD","l1":"1 28649U 05017A   26202.50398488  .00000839  00000-0  89848-4 0  9990","l2":"2 28649  97.5306 224.0123 0000990  56.7886 303.3428 14.91128178148933"},{"id":"28893","name":"SINAH 1","type":"PAYLOAD","l1":"1 28893U 05043D   26202.63359571  .00000224  00000-0  51904-4 0  9994","l2":"2 28893  98.2902 337.1663 0014846 163.6846 196.4837 14.64178378105562"},{"id":"29228","name":"RESURS DK-1","type":"PAYLOAD","l1":"1 29228U 06021A   26202.53978259  .00001330  00000-0  80555-4 0  9996","l2":"2 29228  69.9299 250.6183 0007482 264.3196  95.7117 15.13334713107779"},{"id":"29268","name":"KOMPSAT 2","type":"PAYLOAD","l1":"1 29268U 06031A   26202.65803337  .00000056  00000-0  18955-4 0  9997","l2":"2 29268  97.8324  25.4385 0013651 329.6047 103.6555 14.64677451 66525"},{"id":"29709","name":"LAPAN-TUBSAT","type":"PAYLOAD","l1":"1 29709U 07001A   26202.59636082 -.00000229  00000-0 -19573-4 0  9990","l2":"2 29709  98.1363 202.5992 0013632  75.2819 284.9905 14.85978437 56267"},{"id":"31113","name":"HAIYANG 1B","type":"PAYLOAD","l1":"1 31113U 07010A   26202.40560361  .00000064  00000-0  40057-4 0  9994","l2":"2 31113  98.3520 182.9278 0014822  98.9579 261.3283 14.31034419  5537"},{"id":"31598","name":"SKYMED 1","type":"PAYLOAD","l1":"1 31598U 07023A   26202.62118812  .00002298  00000-0  20364-3 0  9998","l2":"2 31598  97.8855  34.7692 0001813  95.0649 265.0780 14.97244419 34940"},{"id":"31698","name":"TERRA SAR X","type":"PAYLOAD","l1":"1 31698U 07026A   26202.44324132  .00000200  00000-0  12714-4 0  9998","l2":"2 31698  97.4457 209.6623 0001809  80.3305 279.8134 15.19148901 58422"},{"id":"32060","name":"WORLDVIEW 1","type":"PAYLOAD","l1":"1 32060U 07041A   26202.62156400  .00005395  00000-0  22163-3 0  9998","l2":"2 32060  97.3903 321.8851 0002158 180.6080 179.5155 15.24605800 48120"},{"id":"32289","name":"YAOGAN 3","type":"PAYLOAD","l1":"1 32289U 07055A   26202.62572903  .00001308  00000-0  13830-3 0  9997","l2":"2 32289  97.8143 232.1634 0001396  85.3061 274.8316 14.90894614 11000"},{"id":"32376","name":"SKYMED 2","type":"PAYLOAD","l1":"1 32376U 07059A   26202.59142825  .00000260  00000-0  39213-4 0  9990","l2":"2 32376  97.8898  25.6922 0001475  94.2407 265.8975 14.82153951  7100"},{"id":"32382","name":"RADARSAT 2","type":"PAYLOAD","l1":"1 32382U 07061A   26202.60341558  .00000099  00000-0  55382-4 0  9991","l2":"2 32382  98.5791 209.0450 0001342  85.6887 274.4449 14.29984452970874"},{"id":"32783","name":"CARTOSAT 2A","type":"PAYLOAD","l1":"1 32783U 08021A   26202.61184102  .00000240  00000-0  38932-4 0  9994","l2":"2 32783  97.7612 250.1425 0011923   7.4059 352.7327 14.79280264983896"},{"id":"33320","name":"HJ-1A","type":"PAYLOAD","l1":"1 33320U 08041A   26202.62086793  .00000102  00000-0  18346-4 0  9996","l2":"2 33320  97.6709 187.1327 0019921  29.8296 330.4050 14.84055787963516"},{"id":"33321","name":"HJ-1B","type":"PAYLOAD","l1":"1 33321U 08041B   26202.60577777  .00001096  00000-0  13829-3 0  9995","l2":"2 33321  97.6546 190.1851 0037975  71.2555 289.2775 14.83374607963519"},{"id":"33331","name":"GEOEYE 1","type":"PAYLOAD","l1":"1 33331U 08042A   26202.58301751  .00000285  00000-0  62601-4 0  9993","l2":"2 33331  98.1322 276.1039 0003508 323.0140  37.0820 14.64652994955185"},{"id":"33396","name":"THEOS","type":"PAYLOAD","l1":"1 33396U 08049A   26202.63306244  .00000410  00000-0  21231-3 0  9992","l2":"2 33396  98.5548 258.7953 0001119  94.2511 265.8794 14.20138731922855"},{"id":"33412","name":"SKYMED 3","type":"PAYLOAD","l1":"1 33412U 08054A   26202.60280087  .00002865  00000-0  19446-3 0  9991","l2":"2 33412  97.8254  61.7418 0016592 144.5833 215.6499 15.07143192962127"},{"id":"33446","name":"YAOGAN 4","type":"PAYLOAD","l1":"1 33446U 08061A   26202.30256709  .00000677  00000-0  89326-4 0  9991","l2":"2 33446  97.9302 135.5624 0013353 324.9302  35.1031 14.83259188950721"},{"id":"33492","name":"GOSAT (IBUKI)","type":"PAYLOAD","l1":"1 33492U 09002A   26202.29762459  .00000420  00000-0  82521-4 0  9996","l2":"2 33492  98.0915 312.9560 0001091  91.5630 268.5700 14.67538617936460"},{"id":"35681","name":"DEIMOS 1","type":"PAYLOAD","l1":"1 35681U 09041A   26202.57427019  .00000083  00000-0  19309-4 0  9991","l2":"2 35681  97.7447 358.3188 0002795  84.3706 275.7822 14.75266693911957"}]}